GLOBALSTAR M024 [-]     
1 25883U 99043A   24091.81755999 -.00000015  00000+0  17828-2 0  9994
2 25883  52.0023 298.7558 0002392  96.1371 276.7478 11.10160365 65733
GLOBALSTAR M027 [-]     
1 25884U 99043B   24091.88952619 -.00000077  00000+0 -51940-3 0  9993
2 25884  52.0261   4.0430 0021561 358.5595   1.5133 11.04367242 92375
GLOBALSTAR M054 [-]     
1 25885U 99043C   24091.62688979 -.00000132  00000+0 -15374-2 0  9993
2 25885  52.0124 206.1941 0005339 135.1101 237.2860 11.39204936 68616
GLOBALSTAR M053 [-]     
1 25886U 99043D   24091.92627979 -.00000071  00000+0 -54304-4 0  9990
2 25886  51.9955 128.0376 0003206  55.3110   7.6727 11.27654368 69555
GLOBALSTAR M058 [-]     
1 25907U 99049A   24092.58317727 -.00000125  00000+0 -55127-3 0  9993
2 25907  51.9931 208.3493 0002956 143.5916 216.5120 11.93178181100034
GLOBALSTAR M050 [-]     
1 25908U 99049B   24091.84929977  .00000029  00000+0  13202-2 0  9996
2 25908  51.9973 251.0318 0008625 225.5400 283.2067 12.07430816 94754
GLOBALSTAR M033 [-]     
1 25909U 99049C   24092.52732227 -.00000103  00000+0 -11128-3 0  9994
2 25909  51.9900 151.5117 0011874  83.9458 276.2742 12.20269489114559
GLOBALSTAR M055 [-]     
1 25910U 99049D   24091.57056816 -.00000060  00000+0  29670-3 0  9995
2 25910  52.0010 186.4897 0006450 291.2175  68.7988 12.29398101114066
